{
    "links": {
        "self": "http://www.neowsapp.com/rest/v1/neo/3362878?api_key=iIulBulltgU6a56xZRHN4H3l9WmuAYTsLGpBGhQ2"
    },
    "id": "3362878",
    "neo_reference_id": "3362878",
    "name": "(2006 WK130)",
    "designation": "2006 WK130",
    "nasa_jpl_url": "http://ssd.jpl.nasa.gov/sbdb.cgi?sstr=3362878",
    "absolute_magnitude_h": 22.3,
    "estimated_diameter": {
        "kilometers": {
            "estimated_diameter_min": 0.0921626549,
            "estimated_diameter_max": 0.2060819612
        },
        "meters": {
            "estimated_diameter_min": 92.1626548503,
            "estimated_diameter_max": 206.0819612321
        },
        "miles": {
            "estimated_diameter_min": 0.057267201,
            "estimated_diameter_max": 0.1280533543
        },
        "feet": {
            "estimated_diameter_min": 302.370924539,
            "estimated_diameter_max": 676.1219416887
        }
    },
    "is_potentially_hazardous_asteroid": false,
    "close_approach_data": [
        {
            "close_approach_date": "2006-11-23",
            "close_approach_date_full": "2006-Nov-23 22:42",
            "epoch_date_close_approach": 1164321720000,
            "relative_velocity": {
                "kilometers_per_second": "17.7793499002",
                "kilometers_per_hour": "64005.6596406894",
                "miles_per_hour": "39770.6277917384"
            },
            "miss_distance": {
                "astronomical": "0.100682716",
                "lunar": "39.165576524",
                "kilometers": "15061919.85941492",
                "miles": "9359043.016049096"
            },
            "orbiting_body": "Earth"
        },
        {
            "close_approach_date": "2009-12-14",
            "close_approach_date_full": "2009-Dec-14 23:52",
            "epoch_date_close_approach": 1260834720000,
            "relative_velocity": {
                "kilometers_per_second": "28.7726298943",
                "kilometers_per_hour": "103581.4676194951",
                "miles_per_hour": "64361.4958105691"
            },
            "miss_distance": {
                "astronomical": "0.2860108562",
                "lunar": "111.2582230618",
                "kilometers": "42786614.884396294",
                "miles": "26586369.6628210972"
            },
            "orbiting_body": "Earth"
        }
    ],
    "orbital_data": {
        "orbit_id": "13",
        "orbit_determination_date": "2017-04-06 09:07:27",
        "first_observation_date": "2006-11-28",
        "last_observation_date": "2006-12-20",
        "data_arc_in_days": 22,
        "observations_used": 32,
        "orbit_uncertainty": "8",
        "minimum_orbit_intersection": ".0199067",
        "jupiter_tisserand_invariant": "3.371",
        "epoch_osculation": "2454073.5",
        "eccentricity": ".68235064731539",
        "semi_major_axis": "2.108691134626993",
        "inclination": "13.80358778470488",
        "ascending_node_longitude": "72.25000145538446",
        "orbital_period": "1118.453376987865",
        "perihelion_distance": ".6698243739260403",
        "perihelion_argument": "276.8443248131427",
        "aphelion_distance": "3.547557895327947",
        "perihelion_time": "2454019.166209659571",
        "mean_anomaly": "17.48858282786218",
        "mean_motion": ".3218730502379322",
        "equinox": "J2000",
        "orbit_class": {
            "orbit_class_type": "APO",
            "orbit_class_description": "Near-Earth asteroid orbits which cross the Earth’s orbit similar to that of 1862 Apollo",
            "orbit_class_range": "a (semi-major axis) > 1.0 AU; q (perihelion) < 1.017 AU"
        }
    },
    "is_sentry_object": false
}